start=new Date('2022-10-07T00:00:00.000Z').valueOf();
sats=[{"LAUNCH_DATE":"2020-03-18","DECAY_DATE":null,"ARG_OF_PERICENTER":"54.2173","APOAPSIS":"546.528","CENTER_NAME":"EARTH","ELEMENT_SET_NO":"999","REV_AT_EPOCH":"14139","REF_FRAME":"TEME","MEAN_MOTION_DOT":"0.00031706","RCS_SIZE":"LARGE","TIME_SYSTEM":"UTC","MEAN_MOTION":"15.07134866","RA_OF_ASC_NODE":"358.9273","INCLINATION":"53.0539","MEAN_ELEMENT_THEORY":"SGP4","MEAN_MOTION_DDOT":"0.0000000000000","TLE_LINE2":"2 45382  53.0539 358.9273 0002261  54.2173 305.9026 15.07134866141393","NORAD_CAT_ID":"45382","OBJECT_ID":"2020-019Y","FILE":"3594430","CLASSIFICATION_TYPE":"U","SITE":"AFETR","COUNTRY_CODE":"US","EPOCH":"2022-10-06T11:43:17.978592","GP_ID":"214332214","EPHEMERIS_TYPE":"0","PERIAPSIS":"543.397","MEAN_ANOMALY":"305.9026","ECCENTRICITY":"0.00022610","OBJECT_NAME":"STARLINK-1264","BSTAR":"0.00209590000000","OBJECT_TYPE":"PAYLOAD","SEMIMAJOR_AXIS":"6923.097","TLE_LINE1":"1 45382U 20019Y   22279.48840253  .00031706  00000-0  20959-2 0  9994","PERIOD":"95.546"},{"EPHEMERIS_TYPE":"0","GP_ID":"214332720","EPOCH":"2022-10-06T12:11:36.005568","SITE":"AFETR","COUNTRY_CODE":"US","CLASSIFICATION_TYPE":"U","FILE":"3594462","PERIOD":"95.592","TLE_LINE1":"1 45383U 20019Z   22279.50805562  .00003470  00000-0  25178-3 0  9998","BSTAR":"0.00025178000000","OBJECT_TYPE":"PAYLOAD","SEMIMAJOR_AXIS":"6925.366","MEAN_ANOMALY":"298.1607","PERIAPSIS":"546.259","ECCENTRICITY":"0.00014030","OBJECT_NAME":"STARLINK-1266","ELEMENT_SET_NO":"999","CENTER_NAME":"EARTH","APOAPSIS":"548.202","DECAY_DATE":null,"ARG_OF_PERICENTER":"61.9523","LAUNCH_DATE":"2020-03-18","OBJECT_ID":"2020-019Z","NORAD_CAT_ID":"45383","TLE_LINE2":"2 45383  53.0555 358.9129 0001403  61.9523 298.1607 15.06394437141572","RA_OF_ASC_NODE":"358.9129","INCLINATION":"53.0555","MEAN_MOTION_DDOT":"0.0000000000000","MEAN_ELEMENT_THEORY":"SGP4","TIME_SYSTEM":"UTC","RCS_SIZE":"LARGE","MEAN_MOTION":"15.06394437","REF_FRAME":"TEME","MEAN_MOTION_DOT":"0.00003470","REV_AT_EPOCH":"14157"},{"OBJECT_ID":"2020-019AA","MEAN_ELEMENT_THEORY":"SGP4","MEAN_MOTION_DDOT":"0.0000000000000","INCLINATION":"53.0553","RA_OF_ASC_NODE":"358.9554","NORAD_CAT_ID":"45384","TLE_LINE2":"2 45384  53.0553 358.9554 0001630  62.0596 298.0557 15.06401483141570","MEAN_MOTION":"15.06401483","RCS_SIZE":"LARGE","TIME_SYSTEM":"UTC","REV_AT_EPOCH":"14157","MEAN_MOTION_DOT":"0.00003730","REF_FRAME":"TEME","APOAPSIS":"548.338","CENTER_NAME":"EARTH","ELEMENT_SET_NO":"999","ARG_OF_PERICENTER":"62.0596","DECAY_DATE":null,"LAUNCH_DATE":"2020-03-18","PERIOD":"95.592","SEMIMAJOR_AXIS":"6925.344","BSTAR":"0.00026917000000","OBJECT_TYPE":"PAYLOAD","TLE_LINE1":"1 45384U 20019AA  22279.49605078  .00003730  00000-0  26917-3 0  9998","OBJECT_NAME":"STARLINK-1267","ECCENTRICITY":"0.00016300","PERIAPSIS":"546.080","MEAN_ANOMALY":"298.0557","GP_ID":"214332239","EPHEMERIS_TYPE":"0","COUNTRY_CODE":"US","SITE":"AFETR","EPOCH":"2022-10-06T11:54:18.787392","CLASSIFICATION_TYPE":"U","FILE":"3594434"},{"ELEMENT_SET_NO":"999","CENTER_NAME":"EARTH","APOAPSIS":"548.363","LAUNCH_DATE":"2020-03-18","DECAY_DATE":null,"ARG_OF_PERICENTER":"67.0689","NORAD_CAT_ID":"45386","TLE_LINE2":"2 45386  53.0545 358.9412 0001644  67.0689 293.0473 15.06396350141577","RA_OF_ASC_NODE":"358.9412","INCLINATION":"53.0545","MEAN_ELEMENT_THEORY":"SGP4","MEAN_MOTION_DDOT":"0.0000000000000","OBJECT_ID":"2020-019AC","REF_FRAME":"TEME","MEAN_MOTION_DOT":"0.00002615","REV_AT_EPOCH":"14157","TIME_SYSTEM":"UTC","RCS_SIZE":"LARGE","MEAN_MOTION":"15.06396350","EPOCH":"2022-10-06T12:00:58.704480","SITE":"AFETR","COUNTRY_CODE":"US","EPHEMERIS_TYPE":"0","GP_ID":"214310845","FILE":"3593749","CLASSIFICATION_TYPE":"U","PERIOD":"95.592","MEAN_ANOMALY":"293.0473","PERIAPSIS":"546.086","ECCENTRICITY":"0.00016440","OBJECT_NAME":"STARLINK-1272","TLE_LINE1":"1 45386U 20019AC  22279.50067945  .00002615  00000-0  19438-3 0  9998","BSTAR":"0.00019438000000","OBJECT_TYPE":"PAYLOAD","SEMIMAJOR_AXIS":"6925.360"},{"TLE_LINE1":"1 45387U 20019AD  22279.52280715 -.00002178  00000-0 -12743-3 0  9991","SEMIMAJOR_AXIS":"6925.391","BSTAR":"-0.00012743000000","OBJECT_TYPE":"PAYLOAD","OBJECT_NAME":"STARLINK-1274","PERIAPSIS":"546.185","MEAN_ANOMALY":"299.6164","ECCENTRICITY":"0.00015470","PERIOD":"95.593","CLASSIFICATION_TYPE":"U","FILE":"3593749","EPHEMERIS_TYPE":"0","GP_ID":"214311083","EPOCH":"2022-10-06T12:32:50.537760","COUNTRY_CODE":"US","SITE":"AFETR","MEAN_MOTION":"15.06386056","RCS_SIZE":"LARGE","TIME_SYSTEM":"UTC","MEAN_MOTION_DOT":"-0.00002178","REF_FRAME":"TEME","REV_AT_EPOCH":"14157","OBJECT_ID":"2020-019AD","TLE_LINE2":"2 45387  53.0563 358.8386 0001547  60.4979 299.6164 15.06386056141579","NORAD_CAT_ID":"45387","MEAN_MOTION_DDOT":"0.0000000000000","MEAN_ELEMENT_THEORY":"SGP4","INCLINATION":"53.0563","RA_OF_ASC_NODE":"358.8386","ARG_OF_PERICENTER":"60.4979","DECAY_DATE":null,"LAUNCH_DATE":"2020-03-18","ELEMENT_SET_NO":"999","CENTER_NAME":"EARTH","APOAPSIS":"548.328"},{"OBJECT_ID":"2020-019AE","NORAD_CAT_ID":"45388","TLE_LINE2":"2 45388  53.0562  18.6802 0001499  68.1908 291.9240 15.06390864141309","MEAN_ELEMENT_THEORY":"SGP4","MEAN_MOTION_DDOT":"0.0000000000000","INCLINATION":"53.0562","RA_OF_ASC_NODE":"18.6802","MEAN_MOTION":"15.06390864","TIME_SYSTEM":"UTC","RCS_SIZE":"LARGE","MEAN_MOTION_DOT":"-0.00000876","REF_FRAME":"TEME","REV_AT_EPOCH":"14130","CENTER_NAME":"EARTH","ELEMENT_SET_NO":"999","APOAPSIS":"548.280","ARG_OF_PERICENTER":"68.1908","DECAY_DATE":null,"LAUNCH_DATE":"2020-03-18","PERIOD":"95.593","TLE_LINE1":"1 45388U 20019AE  22279.55781139 -.00000876  00000-0 -39942-4 0  9995","SEMIMAJOR_AXIS":"6925.377","BSTAR":"-0.00003994200000","OBJECT_TYPE":"PAYLOAD","OBJECT_NAME":"STARLINK-1280","PERIAPSIS":"546.203","MEAN_ANOMALY":"291.9240","ECCENTRICITY":"0.00014990","EPHEMERIS_TYPE":"0","GP_ID":"214332260","EPOCH":"2022-10-06T13:23:14.904096","COUNTRY_CODE":"US","SITE":"AFETR","CLASSIFICATION_TYPE":"U","FILE":"3594436"},{"CLASSIFICATION_TYPE":"U","FILE":"3594436","GP_ID":"214332262","EPHEMERIS_TYPE":"0","COUNTRY_CODE":"US","SITE":"AFETR","EPOCH":"2022-10-06T12:54:03.884544","SEMIMAJOR_AXIS":"6925.373","OBJECT_TYPE":"PAYLOAD","BSTAR":"0.00014071000000","TLE_LINE1":"1 45389U 20019AF  22279.53754496  .00001814  00000-0  14071-3 0  9996","OBJECT_NAME":"STARLINK-1283","ECCENTRICITY":"0.00017060","PERIAPSIS":"546.057","MEAN_ANOMALY":"309.8032","PERIOD":"95.593","ARG_OF_PERICENTER":"50.3107","DECAY_DATE":null,"LAUNCH_DATE":"2020-03-18","APOAPSIS":"548.420","ELEMENT_SET_NO":"999","CENTER_NAME":"EARTH","MEAN_MOTION":"15.06392012","RCS_SIZE":"LARGE","TIME_SYSTEM":"UTC","REV_AT_EPOCH":"14158","MEAN_MOTION_DOT":"0.00001814","REF_FRAME":"TEME","OBJECT_ID":"2020-019AF","MEAN_MOTION_DDOT":"0.0000000000000","MEAN_ELEMENT_THEORY":"SGP4","RA_OF_ASC_NODE":"358.7847","INCLINATION":"53.0537","NORAD_CAT_ID":"45389","TLE_LINE2":"2 45389  53.0537 358.7847 0001706  50.3107 309.8032 15.06392012141589"},{"MEAN_MOTION":"15.06379923","TIME_SYSTEM":"UTC","RCS_SIZE":"LARGE","REV_AT_EPOCH":"14163","MEAN_MOTION_DOT":"-0.00003409","REF_FRAME":"TEME","OBJECT_ID":"2020-019AG","MEAN_MOTION_DDOT":"0.0000000000000","MEAN_ELEMENT_THEORY":"SGP4","INCLINATION":"53.0579","RA_OF_ASC_NODE":"357.0951","NORAD_CAT_ID":"45390","TLE_LINE2":"2 45390  53.0579 357.0951 0001473  71.1758 288.9391 15.06379923141636","ARG_OF_PERICENTER":"71.1758","DECAY_DATE":null,"LAUNCH_DATE":"2020-03-18","APOAPSIS":"548.295","ELEMENT_SET_NO":"999","CENTER_NAME":"EARTH","SEMIMAJOR_AXIS":"6925.410","BSTAR":"-0.00021017000000","OBJECT_TYPE":"PAYLOAD","TLE_LINE1":"1 45390U 20019AG  22279.90983156 -.00003409  00000-0 -21017-3 0  9998","OBJECT_NAME":"STARLINK-1284","MEAN_ANOMALY":"288.9391","PERIAPSIS":"546.255","ECCENTRICITY":"0.00014730","PERIOD":"95.593","CLASSIFICATION_TYPE":"U","FILE":"3594436","GP_ID":"214332257","EPHEMERIS_TYPE":"0","COUNTRY_CODE":"US","SITE":"AFETR","EPOCH":"2022-10-06T21:50:09.446784"},{"MEAN_ELEMENT_THEORY":"SGP4","MEAN_MOTION_DDOT":"0.0000000000000","INCLINATION":"53.0574","RA_OF_ASC_NODE":"357.0370","TLE_LINE2":"2 45391  53.0574 357.0370 0001556  82.0566 278.0600 15.06421310141368","NORAD_CAT_ID":"45391","OBJECT_ID":"2020-019AH","REV_AT_EPOCH":"14136","MEAN_MOTION_DOT":"0.00015712","REF_FRAME":"TEME","MEAN_MOTION":"15.06421310","RCS_SIZE":"LARGE","TIME_SYSTEM":"UTC","APOAPSIS":"548.226","CENTER_NAME":"EARTH","ELEMENT_SET_NO":"999","LAUNCH_DATE":"2020-03-18","ARG_OF_PERICENTER":"82.0566","DECAY_DATE":null,"PERIOD":"95.591","OBJECT_NAME":"STARLINK-1289","PERIAPSIS":"546.071","MEAN_ANOMALY":"278.0600","ECCENTRICITY":"0.00015560","SEMIMAJOR_AXIS":"6925.283","OBJECT_TYPE":"PAYLOAD","BSTAR":"0.00107070000000","TLE_LINE1":"1 45391U 20019AH  22279.92362256  .00015712  00000-0  10707-2 0  9994","COUNTRY_CODE":"US","SITE":"AFETR","EPOCH":"2022-10-06T22:10:00.989184","GP_ID":"214328625","EPHEMERIS_TYPE":"0","FILE":"3594272","CLASSIFICATION_TYPE":"U"},{"COUNTRY_CODE":"US","SITE":"AFETR","EPOCH":"2022-10-06T21:12:35.293248","GP_ID":"214357140","EPHEMERIS_TYPE":"0","FILE":"3594620","CLASSIFICATION_TYPE":"U","PERIOD":"94.886","OBJECT_NAME":"STARLINK-1290","ECCENTRICITY":"0.00028180","PERIAPSIS":"511.122","MEAN_ANOMALY":"310.8114","SEMIMAJOR_AXIS":"6891.199","OBJECT_TYPE":"PAYLOAD","BSTAR":"0.00197150000000","TLE_LINE1":"1 45392U 20019AJ  22279.88374182  .00040039  00000-0  19715-2 0  9999","APOAPSIS":"515.006","CENTER_NAME":"EARTH","ELEMENT_SET_NO":"999","LAUNCH_DATE":"2020-03-18","ARG_OF_PERICENTER":"49.3124","DECAY_DATE":null,"MEAN_ELEMENT_THEORY":"SGP4","MEAN_MOTION_DDOT":"0.0000000000000","RA_OF_ASC_NODE":"338.5188","INCLINATION":"52.9954","NORAD_CAT_ID":"45392","TLE_LINE2":"2 45392  52.9954 338.5188 0002818  49.3124 310.8114 15.17611330141560","OBJECT_ID":"2020-019AJ","REV_AT_EPOCH":"14156","MEAN_MOTION_DOT":"0.00040039","REF_FRAME":"TEME","MEAN_MOTION":"15.17611330","TIME_SYSTEM":"UTC","RCS_SIZE":"LARGE"}];
